YAOGAN-30 08A           
1 46807U 20076A   25334.84624001  .00003373  00000+0  25885-3 0  9998
2 46807  34.9932 219.0229 0001161 288.4262  71.6319 15.01328304278273
YAOGAN-30 08B           
1 46808U 20076B   25334.82548207  .00003468  00000+0  26570-3 0  9997
2 46808  34.9936 218.9224 0001161  20.9291 339.1465 15.01391191278382
YAOGAN-30 08C           
1 46809U 20076C   25334.86757432  .00003375  00000+0  25837-3 0  9996
2 46809  34.9949 218.4945 0005077 141.3950 218.7121 15.01415312278307
TIANQI-6                
1 46810U 20076D   25334.83418097  .00004464  00000+0  30724-3 0  9997
2 46810  34.9978 184.2545 0010936 229.1606 130.8155 15.05290302278653
CE-SAT IIB              
1 46818U 20077F   25334.82990993  .00038244  00000+0  34610-3 0  9996
2 46818  97.2359  43.2428 0004312 167.7928 192.3439 15.67982112283957
RISAT-2BR2              
1 46905U 20081A   25334.43969244  .00005717  00000+0  44052-3 0  9990
2 46905  36.8999 324.2261 0016174 320.3483  39.6074 15.01298204277582
KSM1-C                  
1 46906U 20081B   25334.88099620  .00009780  00000+0  41650-3 0  9997
2 46906  36.8927 199.5675 0005030 342.0505  18.0064 15.22455942278882
KSM1-D                  
1 46907U 20081C   25334.85034332  .00008916  00000+0  39697-3 0  9992
2 46907  36.8954 205.4416 0005547 355.7178   4.3521 15.20974623278845
