{
  "type": "FeatureCollection",
  "features": [
    {
      "type": "Feature",
      "properties": {
        "norad_id": 46807,
        "name": "YAOGAN-30 08A",
        "group": "active",
        "lat": NaN,
        "lon": NaN,
        "alt_km": NaN,
        "timestamp": "2025-12-01T03:08:33.337105+00:00",
        "meta": {
          "OBJECT_NAME": "YAOGAN-30 08A",
          "OBJECT_ID": "2020-076A",
          "EPOCH": "2025-11-30T20:18:35.136864",
          "MEAN_MOTION": 15.01328304,
          "ECCENTRICITY": 0.0001161,
          "INCLINATION": 34.9932,
          "RA_OF_ASC_NODE": 219.0229,
          "ARG_OF_PERICENTER": 288.4262,
          "MEAN_ANOMALY": 71.6319,
          "EPHEMERIS_TYPE": 0,
          "CLASSIFICATION_TYPE": "U",
          "NORAD_CAT_ID": 46807,
          "ELEMENT_SET_NO": 999,
          "REV_AT_EPOCH": 27827,
          "BSTAR": 0.00025885,
          "MEAN_MOTION_DOT": 3.373e-05,
          "MEAN_MOTION_DDOT": 0
        }
      },
      "geometry": {
        "type": "Point",
        "coordinates": [
          NaN,
          NaN
        ]
      }
    },
    {
      "type": "Feature",
      "properties": {
        "norad_id": 46808,
        "name": "YAOGAN-30 08B",
        "group": "active",
        "lat": NaN,
        "lon": NaN,
        "alt_km": NaN,
        "timestamp": "2025-12-01T03:08:33.337113+00:00",
        "meta": {
          "OBJECT_NAME": "YAOGAN-30 08B",
          "OBJECT_ID": "2020-076B",
          "EPOCH": "2025-11-30T19:48:41.650848",
          "MEAN_MOTION": 15.01391191,
          "ECCENTRICITY": 0.0001161,
          "INCLINATION": 34.9936,
          "RA_OF_ASC_NODE": 218.9224,
          "ARG_OF_PERICENTER": 20.9291,
          "MEAN_ANOMALY": 339.1465,
          "EPHEMERIS_TYPE": 0,
          "CLASSIFICATION_TYPE": "U",
          "NORAD_CAT_ID": 46808,
          "ELEMENT_SET_NO": 999,
          "REV_AT_EPOCH": 27838,
          "BSTAR": 0.0002657,
          "MEAN_MOTION_DOT": 3.468e-05,
          "MEAN_MOTION_DDOT": 0
        }
      },
      "geometry": {
        "type": "Point",
        "coordinates": [
          NaN,
          NaN
        ]
      }
    },
    {
      "type": "Feature",
      "properties": {
        "norad_id": 46809,
        "name": "YAOGAN-30 08C",
        "group": "active",
        "lat": NaN,
        "lon": NaN,
        "alt_km": NaN,
        "timestamp": "2025-12-01T03:08:33.337118+00:00",
        "meta": {
          "OBJECT_NAME": "YAOGAN-30 08C",
          "OBJECT_ID": "2020-076C",
          "EPOCH": "2025-11-30T20:49:18.421248",
          "MEAN_MOTION": 15.01415312,
          "ECCENTRICITY": 0.0005077,
          "INCLINATION": 34.9949,
          "RA_OF_ASC_NODE": 218.4945,
          "ARG_OF_PERICENTER": 141.395,
          "MEAN_ANOMALY": 218.7121,
          "EPHEMERIS_TYPE": 0,
          "CLASSIFICATION_TYPE": "U",
          "NORAD_CAT_ID": 46809,
          "ELEMENT_SET_NO": 999,
          "REV_AT_EPOCH": 27830,
          "BSTAR": 0.00025837,
          "MEAN_MOTION_DOT": 3.375e-05,
          "MEAN_MOTION_DDOT": 0
        }
      },
      "geometry": {
        "type": "Point",
        "coordinates": [
          NaN,
          NaN
        ]
      }
    },
    {
      "type": "Feature",
      "properties": {
        "norad_id": 46810,
        "name": "TIANQI-6",
        "group": "active",
        "lat": NaN,
        "lon": NaN,
        "alt_km": NaN,
        "timestamp": "2025-12-01T03:08:33.337123+00:00",
        "meta": {
          "OBJECT_NAME": "TIANQI-6",
          "OBJECT_ID": "2020-076D",
          "EPOCH": "2025-11-30T20:01:13.235808",
          "MEAN_MOTION": 15.05290302,
          "ECCENTRICITY": 0.0010936,
          "INCLINATION": 34.9978,
          "RA_OF_ASC_NODE": 184.2545,
          "ARG_OF_PERICENTER": 229.1606,
          "MEAN_ANOMALY": 130.8155,
          "EPHEMERIS_TYPE": 0,
          "CLASSIFICATION_TYPE": "U",
          "NORAD_CAT_ID": 46810,
          "ELEMENT_SET_NO": 999,
          "REV_AT_EPOCH": 27865,
          "BSTAR": 0.00030724,
          "MEAN_MOTION_DOT": 4.464e-05,
          "MEAN_MOTION_DDOT": 0
        }
      },
      "geometry": {
        "type": "Point",
        "coordinates": [
          NaN,
          NaN
        ]
      }
    },
    {
      "type": "Feature",
      "properties": {
        "norad_id": 46818,
        "name": "CE-SAT IIB",
        "group": "active",
        "lat": NaN,
        "lon": NaN,
        "alt_km": NaN,
        "timestamp": "2025-12-01T03:08:33.337130+00:00",
        "meta": {
          "OBJECT_NAME": "CE-SAT IIB",
          "OBJECT_ID": "2020-077F",
          "EPOCH": "2025-11-30T19:55:04.217952",
          "MEAN_MOTION": 15.67982112,
          "ECCENTRICITY": 0.0004312,
          "INCLINATION": 97.2359,
          "RA_OF_ASC_NODE": 43.2428,
          "ARG_OF_PERICENTER": 167.7928,
          "MEAN_ANOMALY": 192.3439,
          "EPHEMERIS_TYPE": 0,
          "CLASSIFICATION_TYPE": "U",
          "NORAD_CAT_ID": 46818,
          "ELEMENT_SET_NO": 999,
          "REV_AT_EPOCH": 28395,
          "BSTAR": 0.0003461,
          "MEAN_MOTION_DOT": 0.00038244,
          "MEAN_MOTION_DDOT": 0
        }
      },
      "geometry": {
        "type": "Point",
        "coordinates": [
          NaN,
          NaN
        ]
      }
    },
    {
      "type": "Feature",
      "properties": {
        "norad_id": 46905,
        "name": "RISAT-2BR2",
        "group": "active",
        "lat": NaN,
        "lon": NaN,
        "alt_km": NaN,
        "timestamp": "2025-12-01T03:08:33.337168+00:00",
        "meta": {
          "OBJECT_NAME": "RISAT-2BR2",
          "OBJECT_ID": "2020-081A",
          "EPOCH": "2025-11-30T10:33:09.426816",
          "MEAN_MOTION": 15.01298204,
          "ECCENTRICITY": 0.00161745,
          "INCLINATION": 36.8999,
          "RA_OF_ASC_NODE": 324.2261,
          "ARG_OF_PERICENTER": 320.3483,
          "MEAN_ANOMALY": 39.6074,
          "EPHEMERIS_TYPE": 0,
          "CLASSIFICATION_TYPE": "U",
          "NORAD_CAT_ID": 46905,
          "ELEMENT_SET_NO": 999,
          "REV_AT_EPOCH": 27758,
          "BSTAR": 0.00044051936,
          "MEAN_MOTION_DOT": 5.717e-05,
          "MEAN_MOTION_DDOT": 0
        }
      },
      "geometry": {
        "type": "Point",
        "coordinates": [
          NaN,
          NaN
        ]
      }
    },
    {
      "type": "Feature",
      "properties": {
        "norad_id": 46906,
        "name": "KSM1-C",
        "group": "active",
        "lat": NaN,
        "lon": NaN,
        "alt_km": NaN,
        "timestamp": "2025-12-01T03:08:33.337175+00:00",
        "meta": {
          "OBJECT_NAME": "KSM1-C",
          "OBJECT_ID": "2020-081B",
          "EPOCH": "2025-11-30T21:08:38.071680",
          "MEAN_MOTION": 15.22455942,
          "ECCENTRICITY": 0.000503,
          "INCLINATION": 36.8927,
          "RA_OF_ASC_NODE": 199.5675,
          "ARG_OF_PERICENTER": 342.0505,
          "MEAN_ANOMALY": 18.0064,
          "EPHEMERIS_TYPE": 0,
          "CLASSIFICATION_TYPE": "U",
          "NORAD_CAT_ID": 46906,
          "ELEMENT_SET_NO": 999,
          "REV_AT_EPOCH": 27888,
          "BSTAR": 0.0004165,
          "MEAN_MOTION_DOT": 9.78e-05,
          "MEAN_MOTION_DDOT": 0
        }
      },
      "geometry": {
        "type": "Point",
        "coordinates": [
          NaN,
          NaN
        ]
      }
    },
    {
      "type": "Feature",
      "properties": {
        "norad_id": 46907,
        "name": "KSM1-D",
        "group": "active",
        "lat": NaN,
        "lon": NaN,
        "alt_km": NaN,
        "timestamp": "2025-12-01T03:08:33.337180+00:00",
        "meta": {
          "OBJECT_NAME": "KSM1-D",
          "OBJECT_ID": "2020-081C",
          "EPOCH": "2025-11-30T20:24:29.662848",
          "MEAN_MOTION": 15.20974623,
          "ECCENTRICITY": 0.0005547,
          "INCLINATION": 36.8954,
          "RA_OF_ASC_NODE": 205.4416,
          "ARG_OF_PERICENTER": 355.7178,
          "MEAN_ANOMALY": 4.3521,
          "EPHEMERIS_TYPE": 0,
          "CLASSIFICATION_TYPE": "U",
          "NORAD_CAT_ID": 46907,
          "ELEMENT_SET_NO": 999,
          "REV_AT_EPOCH": 27884,
          "BSTAR": 0.00039697,
          "MEAN_MOTION_DOT": 8.916e-05,
          "MEAN_MOTION_DDOT": 0
        }
      },
      "geometry": {
        "type": "Point",
        "coordinates": [
          NaN,
          NaN
        ]
      }
    }
  ]
}